CCSDS_OMM_VERS = 2.0
CREATION_DATE  = 
ORIGINATOR     = 

OBJECT_NAME    = UNKNOWN
OBJECT_ID      = 
CENTER_NAME    = EARTH
REF_FRAME      = TEME
TIME_SYSTEM    = UTC
MEAN_ELEMENT_THEORY = SGP/SGP4

EPOCH          = 2026-03-03T07:49:01.987680
MEAN_MOTION    = 13.16431080
ECCENTRICITY   = .0016132
INCLINATION    = 82.4734
RA_OF_ASC_NODE = 191.1604
ARG_OF_PERICENTER = 245.7240
MEAN_ANOMALY   = 144.0414

EPHEMERIS_TYPE = 0
CLASSIFICATION_TYPE = U
NORAD_CAT_ID   = 82627
ELEMENT_SET_NO = 999
REV_AT_EPOCH   = 58943
BSTAR          = .18517E-2
MEAN_MOTION_DOT = .719E-5
MEAN_MOTION_DDOT = 0

CCSDS_OMM_VERS = 2.0
CREATION_DATE  = 
ORIGINATOR     = 

OBJECT_NAME    = UNKNOWN
OBJECT_ID      = 
CENTER_NAME    = EARTH
REF_FRAME      = TEME
TIME_SYSTEM    = UTC
MEAN_ELEMENT_THEORY = SGP/SGP4

EPOCH          = 2026-03-03T13:11:43.764576
MEAN_MOTION    = 14.07579066
ECCENTRICITY   = .0136834
INCLINATION    = 98.9746
RA_OF_ASC_NODE = 337.5622
ARG_OF_PERICENTER = 11.2481
MEAN_ANOMALY   = 349.1694

EPHEMERIS_TYPE = 0
CLASSIFICATION_TYPE = U
NORAD_CAT_ID   = 82642
ELEMENT_SET_NO = 999
REV_AT_EPOCH   = 62750
BSTAR          = .18738E-2
MEAN_MOTION_DOT = .34E-4
MEAN_MOTION_DDOT = 0

CCSDS_OMM_VERS = 2.0
CREATION_DATE  = 
ORIGINATOR     = 

OBJECT_NAME    = UNKNOWN
OBJECT_ID      = 
CENTER_NAME    = EARTH
REF_FRAME      = TEME
TIME_SYSTEM    = UTC
MEAN_ELEMENT_THEORY = SGP/SGP4

EPOCH          = 2026-03-03T15:19:19.435296
MEAN_MOTION    = 14.20379991
ECCENTRICITY   = .0210991
INCLINATION    = 98.1608
RA_OF_ASC_NODE = 130.4954
ARG_OF_PERICENTER = 158.8020
MEAN_ANOMALY   = 202.2065

EPHEMERIS_TYPE = 0
CLASSIFICATION_TYPE = U
NORAD_CAT_ID   = 82683
ELEMENT_SET_NO = 999
REV_AT_EPOCH   = 47375
BSTAR          = .71632E-3
MEAN_MOTION_DOT = .188E-4
MEAN_MOTION_DDOT = 0

CCSDS_OMM_VERS = 2.0
CREATION_DATE  = 
ORIGINATOR     = 

OBJECT_NAME    = UNKNOWN
OBJECT_ID      = 
CENTER_NAME    = EARTH
REF_FRAME      = TEME
TIME_SYSTEM    = UTC
MEAN_ELEMENT_THEORY = SGP/SGP4

EPOCH          = 2026-03-01T17:44:45.331584
MEAN_MOTION    = 13.69982439
ECCENTRICITY   = .0038683
INCLINATION    = 100.5288
RA_OF_ASC_NODE = 36.5327
ARG_OF_PERICENTER = 187.1107
MEAN_ANOMALY   = 172.9491

EPHEMERIS_TYPE = 0
CLASSIFICATION_TYPE = U
NORAD_CAT_ID   = 82693
ELEMENT_SET_NO = 999
REV_AT_EPOCH   = 56457
BSTAR          = .30752E-2
MEAN_MOTION_DOT = .2664E-4
MEAN_MOTION_DDOT = 0

CCSDS_OMM_VERS = 2.0
CREATION_DATE  = 
ORIGINATOR     = 

OBJECT_NAME    = UNKNOWN
OBJECT_ID      = 
CENTER_NAME    = EARTH
REF_FRAME      = TEME
TIME_SYSTEM    = UTC
MEAN_ELEMENT_THEORY = SGP/SGP4

EPOCH          = 2026-02-27T03:14:59.624448
MEAN_MOTION    = 13.29852878
ECCENTRICITY   = .0688186
INCLINATION    = 61.6122
RA_OF_ASC_NODE = 305.8235
ARG_OF_PERICENTER = 318.1455
MEAN_ANOMALY   = 36.8822

EPHEMERIS_TYPE = 0
CLASSIFICATION_TYPE = U
NORAD_CAT_ID   = 82698
ELEMENT_SET_NO = 999
REV_AT_EPOCH   = 54853
BSTAR          = .69448E-3
MEAN_MOTION_DOT = .1124E-4
MEAN_MOTION_DDOT = 0

CCSDS_OMM_VERS = 2.0
CREATION_DATE  = 
ORIGINATOR     = 

OBJECT_NAME    = UNKNOWN
OBJECT_ID      = 
CENTER_NAME    = EARTH
REF_FRAME      = TEME
TIME_SYSTEM    = UTC
MEAN_ELEMENT_THEORY = SGP/SGP4

EPOCH          = 2026-02-26T01:28:04.814976
MEAN_MOTION    = 12.90719687
ECCENTRICITY   = .0059414
INCLINATION    = 102.1674
RA_OF_ASC_NODE = 272.5145
ARG_OF_PERICENTER = 133.1438
MEAN_ANOMALY   = 227.4642

EPHEMERIS_TYPE = 0
CLASSIFICATION_TYPE = U
NORAD_CAT_ID   = 82708
ELEMENT_SET_NO = 999
REV_AT_EPOCH   = 53323
BSTAR          = .35966E-2
MEAN_MOTION_DOT = .905E-5
MEAN_MOTION_DDOT = 0

CCSDS_OMM_VERS = 2.0
CREATION_DATE  = 
ORIGINATOR     = 

OBJECT_NAME    = UNKNOWN
OBJECT_ID      = 
CENTER_NAME    = EARTH
REF_FRAME      = TEME
TIME_SYSTEM    = UTC
MEAN_ELEMENT_THEORY = SGP/SGP4

EPOCH          = 2026-02-03T07:14:51.214560
MEAN_MOTION    = 12.17839691
ECCENTRICITY   = .083697
INCLINATION    = 67.9680
RA_OF_ASC_NODE = 55.0044
ARG_OF_PERICENTER = 334.6781
MEAN_ANOMALY   = 21.5304

EPHEMERIS_TYPE = 0
CLASSIFICATION_TYPE = U
NORAD_CAT_ID   = 82729
ELEMENT_SET_NO = 999
REV_AT_EPOCH   = 54160
BSTAR          = .17478E-2
MEAN_MOTION_DOT = .491E-5
MEAN_MOTION_DDOT = 0

CCSDS_OMM_VERS = 2.0
CREATION_DATE  = 
ORIGINATOR     = 

OBJECT_NAME    = UNKNOWN
OBJECT_ID      = 
CENTER_NAME    = EARTH
REF_FRAME      = TEME
TIME_SYSTEM    = UTC
MEAN_ELEMENT_THEORY = SGP/SGP4

EPOCH          = 2026-03-01T22:39:25.288416
MEAN_MOTION    = 13.82966322
ECCENTRICITY   = .0171805
INCLINATION    = 99.0936
RA_OF_ASC_NODE = 219.5999
ARG_OF_PERICENTER = 81.8902
MEAN_ANOMALY   = 71.2095

EPHEMERIS_TYPE = 0
CLASSIFICATION_TYPE = U
NORAD_CAT_ID   = 82739
ELEMENT_SET_NO = 999
REV_AT_EPOCH   = 61705
BSTAR          = .44305E-3
MEAN_MOTION_DOT = .501E-5
MEAN_MOTION_DDOT = 0

CCSDS_OMM_VERS = 2.0
CREATION_DATE  = 
ORIGINATOR     = 

OBJECT_NAME    = UNKNOWN
OBJECT_ID      = 
CENTER_NAME    = EARTH
REF_FRAME      = TEME
TIME_SYSTEM    = UTC
MEAN_ELEMENT_THEORY = SGP/SGP4

EPOCH          = 2026-03-01T22:27:40.717152
MEAN_MOTION    = 13.66448717
ECCENTRICITY   = .0199546
INCLINATION    = 102.8432
RA_OF_ASC_NODE = 126.8873
ARG_OF_PERICENTER = 90.9398
MEAN_ANOMALY   = 271.4601

EPHEMERIS_TYPE = 0
CLASSIFICATION_TYPE = U
NORAD_CAT_ID   = 82741
ELEMENT_SET_NO = 999
REV_AT_EPOCH   = 60789
BSTAR          = .21164E-2
MEAN_MOTION_DOT = .1943E-4
MEAN_MOTION_DDOT = 0

CCSDS_OMM_VERS = 2.0
CREATION_DATE  = 
ORIGINATOR     = 

OBJECT_NAME    = UNKNOWN
OBJECT_ID      = 
CENTER_NAME    = EARTH
REF_FRAME      = TEME
TIME_SYSTEM    = UTC
MEAN_ELEMENT_THEORY = SGP/SGP4

EPOCH          = 2026-03-02T21:24:02.796192
MEAN_MOTION    = 13.09082179
ECCENTRICITY   = .0020071
INCLINATION    = 90.3436
RA_OF_ASC_NODE = 40.7229
ARG_OF_PERICENTER = 260.1678
MEAN_ANOMALY   = 99.7184

EPHEMERIS_TYPE = 0
CLASSIFICATION_TYPE = U
NORAD_CAT_ID   = 82783
ELEMENT_SET_NO = 999
REV_AT_EPOCH   = 51484
BSTAR          = -.85822E-3
MEAN_MOTION_DOT = -.287E-5
MEAN_MOTION_DDOT = 0

CCSDS_OMM_VERS = 2.0
CREATION_DATE  = 
ORIGINATOR     = 

OBJECT_NAME    = UNKNOWN
OBJECT_ID      = 
CENTER_NAME    = EARTH
REF_FRAME      = TEME
TIME_SYSTEM    = UTC
MEAN_ELEMENT_THEORY = SGP/SGP4

EPOCH          = 2026-02-28T11:33:56.602368
MEAN_MOTION    = 14.23311743
ECCENTRICITY   = .0027126
INCLINATION    = 82.9509
RA_OF_ASC_NODE = 129.4832
ARG_OF_PERICENTER = 292.8683
MEAN_ANOMALY   = 82.6977

EPHEMERIS_TYPE = 0
CLASSIFICATION_TYPE = U
NORAD_CAT_ID   = 82798
ELEMENT_SET_NO = 999
REV_AT_EPOCH   = 32343
BSTAR          = .83774E-3
MEAN_MOTION_DOT = .192E-4
MEAN_MOTION_DDOT = 0

CCSDS_OMM_VERS = 2.0
CREATION_DATE  = 
ORIGINATOR     = 

OBJECT_NAME    = UNKNOWN
OBJECT_ID      = 
CENTER_NAME    = EARTH
REF_FRAME      = TEME
TIME_SYSTEM    = UTC
MEAN_ELEMENT_THEORY = SGP/SGP4

EPOCH          = 2026-03-02T06:54:40.611456
MEAN_MOTION    = 14.35666519
ECCENTRICITY   = .0049538
INCLINATION    = 99.7920
RA_OF_ASC_NODE = 237.6479
ARG_OF_PERICENTER = 149.0161
MEAN_ANOMALY   = 211.3959

EPHEMERIS_TYPE = 0
CLASSIFICATION_TYPE = U
NORAD_CAT_ID   = 82820
ELEMENT_SET_NO = 999
REV_AT_EPOCH   = 63704
BSTAR          = .15628E-2
MEAN_MOTION_DOT = .4522E-4
MEAN_MOTION_DDOT = 0

